{
  "type": "FeatureCollection",
  "name": "CampusFootprint2_2",
  "crs": {
    "type": "name",
    "properties": {
      "name": "urn:ogc:def:crs:OGC:1.3:CRS84"
    }
  },
  "features": [
    {
      "type": "Feature",
      "properties": {
        "fid": "1",
        "id": "11",
        "BLOCK": "BLOCK K",
        "CATEGORY": "BLOCK K",
        "CLUSTER": "KTKMP"
      },
      "geometry": {
        "type": "MultiPolygon",
        "coordinates": [
          [
            [
              [
                102.73225415842495,
                2.147535664091242
              ],
              [
                102.73207324475061,
                2.147853778957209
              ],
              [
                102.7322211068883,
                2.147937218911088
              ],
              [
                102.73217413891513,
                2.14800849053475
              ],
              [
                102.73297272791122,
                2.148460921373526
              ],
              [
                102.73319472820758,
                2.148037099483656
              ],
              [
                102.73242071922112,
                2.147578813461007
              ],
              [
                102.73239624194157,
                2.147617949600074
              ],
              [
                102.73225415842495,
                2.147535664091242
              ]
            ]
          ]
        ]
      }
    },
    {
      "type": "Feature",
      "properties": {
        "fid": "2",
        "id": "10",
        "BLOCK": "BLOCK J",
        "CATEGORY": "MSTPi, MTKK, MTKMB",
        "CLUSTER": "KSGT, KTKAK, KTKEM"
      },
      "geometry": {
        "type": "MultiPolygon",
        "coordinates": [
          [
            [
              [
                102.73190937376746,
                2.148700366649997
              ],
              [
                102.73206556212287,
                2.148430141098908
              ],
              [
                102.73198630236041,
                2.148588549186379
              ],
              [
                102.73255743888399,
                2.148903035781933
              ],
              [
                102.7326576791718,
                2.148770252560599
              ],
              [
                102.73260173110417,
                2.148854115649101
              ],
              [
                102.73274393244269,
                2.148944967323112
              ],
              [
                102.73292343249294,
                2.148642128388718
              ],
              [
                102.73276957530702,
                2.148562924349815
              ],
              [
                102.73265534800228,
                2.148767923030297
              ],
              [
                102.73206556212287,
                2.148427811568087
              ],
              [
                102.73220776346139,
                2.148169233624904
              ],
              [
                102.73280221167977,
                2.148495367960445
              ],
              [
                102.73271828957834,
                2.148649116980188
              ],
              [
                102.73213549720737,
                2.148306675960515
              ],
              [
                102.73218212059705,
                2.148227471904215
              ],
              [
                102.73203758808907,
                2.148138949718785
              ],
              [
                102.73176017892047,
                2.148614174022516
              ],
              [
                102.73190937376746,
                2.148700366649997
              ]
            ]
          ]
        ]
      }
    },
    {
      "type": "Feature",
      "properties": {
        "fid": "3",
        "id": "9",
        "BLOCK": "BLOCK H",
        "CATEGORY": "MTKA, MTKK & MTKMM",
        "CLUSTER": "KTKAK, KTKEM"
      },
      "geometry": {
        "type": "MultiPolygon",
        "coordinates": [
          [
            [
              [
                102.7317602853447,
                2.148614834002556
              ],
              [
                102.73168573025507,
                2.148755242880076
              ],
              [
                102.73244561866889,
                2.149196527839654
              ],
              [
                102.73252017375857,
                2.14904752254289
              ],
              [
                102.7317602853447,
                2.148614834002556
              ]
            ]
          ]
        ]
      }
    },
    {
      "type": "Feature",
      "properties": {
        "fid": "4",
        "id": "9",
        "BLOCK": "BLOCK H",
        "CATEGORY": "MTKA, MTKK & MTKMM",
        "CLUSTER": "KTKAK, KTKEM"
      },
      "geometry": {
        "type": "MultiPolygon",
        "coordinates": [
          [
            [
              [
                102.7315997051516,
                2.149508865818376
              ],
              [
                102.73177175535852,
                2.149528924218494
              ],
              [
                102.7318061653999,
                2.149230913675306
              ],
              [
                102.73178896037919,
                2.149408573813826
              ],
              [
                102.732414076131,
                2.149477345474797
              ],
              [
                102.73245422117924,
                2.149233779161573
              ],
              [
                102.73241981113786,
                2.149483076446406
              ],
              [
                102.73256605381373,
                2.149503134846864
              ],
              [
                102.73259186134476,
                2.149245241106597
              ],
              [
                102.7324513536758,
                2.149228048189031
              ],
              [
                102.73244275116546,
                2.149314012774928
              ],
              [
                102.73180329789646,
                2.149230913675306
              ],
              [
                102.73183484043439,
                2.148855534927542
              ],
              [
                102.73166279022746,
                2.148838342005588
              ],
              [
                102.7315997051516,
                2.149508865818376
              ]
            ]
          ]
        ]
      }
    },
    {
      "type": "Feature",
      "properties": {
        "fid": "5",
        "id": "8",
        "BLOCK": "BLOCK G",
        "CATEGORY": "MAKMAL TEKNOLOGI KEJURUTERAAN AWAM",
        "CLUSTER": "KTKAK, KSGT"
      },
      "geometry": {
        "type": "MultiPolygon",
        "coordinates": [
          [
            [
              [
                102.73149762985013,
                2.150082388859594
              ],
              [
                102.73166881186796,
                2.15011232462225
              ],
              [
                102.73166881186796,
                2.150082388859594
              ],
              [
                102.73235353993938,
                2.14989849773325
              ],
              [
                102.7323920558934,
                2.150056729633992
              ],
              [
                102.73171160737245,
                2.150249173815487
              ],
              [
                102.73167309141843,
                2.150108048084764
              ],
              [
                102.73174584377601,
                2.15039029953316
              ],
              [
                102.73157466175813,
                2.150441617972714
              ],
              [
                102.73148907074923,
                2.15014653692171
              ],
              [
                102.73166881186796,
                2.15011232462225
              ],
              [
                102.7316987687211,
                2.149889944657067
              ],
              [
                102.73172444602378,
                2.149889944657067
              ],
              [
                102.73177580062914,
                2.1495349919532
              ],
              [
                102.7317544028769,
                2.149706053507537
              ],
              [
                102.73238349679254,
                2.149778754662325
              ],
              [
                102.73240489454474,
                2.149620522732765
              ],
              [
                102.73254184015904,
                2.149629075810457
              ],
              [
                102.73250332420503,
                2.149924156961513
              ],
              [
                102.73237065814119,
                2.14989849773325
              ],
              [
                102.73240489454474,
                2.149620522732765
              ],
              [
                102.73160033906082,
                2.149509332718396
              ],
              [
                102.73149762985013,
                2.150082388859594
              ]
            ]
          ]
        ]
      }
    },
    {
      "type": "Feature",
      "properties": {
        "fid": "6",
        "id": "7",
        "BLOCK": "BLOCK F",
        "CATEGORY": "MAKMAL TEKNOLOGI KEJURUTERAAN AWAM",
        "CLUSTER": "KTKAK"
      },
      "geometry": {
        "type": "MultiPolygon",
        "coordinates": [
          [
            [
              [
                102.73155762749832,
                2.150449423598964
              ],
              [
                102.73170861003808,
                2.150402274782929
              ],
              [
                102.73175343297954,
                2.150550793548504
              ],
              [
                102.73176051028611,
                2.15055315098911
              ],
              [
                102.73248947286082,
                2.150345696201764
              ],
              [
                102.73247060004334,
                2.150260828326084
              ],
              [
                102.73256968233504,
                2.150640376289004
              ],
              [
                102.7327065102617,
                2.150590870038326
              ],
              [
                102.7327065102617,
                2.150590870038326
              ],
              [
                102.73258855515253,
                2.150133526503714
              ],
              [
                102.73244936812368,
                2.15017831788687
              ],
              [
                102.73246824094116,
                2.150258470885026
              ],
              [
                102.73239510877347,
                2.15027968785442
              ],
              [
                102.73237151775164,
                2.150199534857379
              ],
              [
                102.73170861003808,
                2.150404632223765
              ],
              [
                102.73183364245381,
                2.150847831036282
              ],
              [
                102.73178881951229,
                2.150682810216877
              ],
              [
                102.73252485939358,
                2.150477712887884
              ],
              [
                102.73256732323287,
                2.150640376289004
              ],
              [
                102.73183600155599,
                2.150847831036282
              ],
              [
                102.73168265991406,
                2.150885550078211
              ],
              [
                102.73155762749832,
                2.150449423598964
              ]
            ]
          ]
        ]
      }
    }
  ]
}