{
  "type": "FeatureCollection",
  "name": "CampusFootprint1_3",
  "crs": {
    "type": "name",
    "properties": {
      "name": "urn:ogc:def:crs:OGC:1.3:CRS84"
    }
  },
  "features": [
    {
      "type": "Feature",
      "properties": {
        "fid": "1",
        "id": "2",
        "BLOCK": "BLOCK 2A",
        "CATEGORY": "CAFETERIA",
        "CLUSTER": "-"
      },
      "geometry": {
        "type": "MultiPolygon",
        "coordinates": [
          [
            [
              [
                102.73090095254418,
                2.149405259215111
              ],
              [
                102.73086053133513,
                2.149276736760679
              ],
              [
                102.73101854151598,
                2.149228999846276
              ],
              [
                102.73095607237471,
                2.1489976593938
              ],
              [
                102.7312537194595,
                2.148916873830709
              ],
              [
                102.73133088722223,
                2.149144542224832
              ],
              [
                102.73124269549339,
                2.14917024671881
              ],
              [
                102.73126841808096,
                2.149313457463049
              ],
              [
                102.73090095254418,
                2.149405259215111
              ]
            ]
          ]
        ]
      }
    },
    {
      "type": "Feature",
      "properties": {
        "fid": "2",
        "id": "13",
        "BLOCK": "-",
        "CATEGORY": "NETBALL COURT 2",
        "CLUSTER": "-"
      },
      "geometry": {
        "type": "MultiPolygon",
        "coordinates": [
          [
            [
              [
                102.72877382134689,
                2.150353876543777
              ],
              [
                102.72877382134689,
                2.150353876543777
              ],
              [
                102.72891594428373,
                2.150101391448354
              ],
              [
                102.7290873941758,
                2.15020734502027
              ],
              [
                102.72894075939965,
                2.150453067105549
              ],
              [
                102.72877382134689,
                2.150353876543777
              ]
            ]
          ]
        ]
      }
    },
    {
      "type": "Feature",
      "properties": {
        "fid": "3",
        "id": "12",
        "BLOCK": "-",
        "CATEGORY": "NETBALL COURT 1",
        "CLUSTER": "-"
      },
      "geometry": {
        "type": "MultiPolygon",
        "coordinates": [
          [
            [
              [
                102.72894527123894,
                2.150067576477043
              ],
              [
                102.72911220929174,
                2.150171275720019
              ],
              [
                102.7292475644697,
                2.149923299257707
              ],
              [
                102.72907611457764,
                2.149819599997884
              ],
              [
                102.72907611457764,
                2.149819599997884
              ],
              [
                102.72894527123894,
                2.150067576477043
              ]
            ]
          ]
        ]
      }
    },
    {
      "type": "Feature",
      "properties": {
        "fid": "4",
        "id": "14",
        "BLOCK": "-",
        "CATEGORY": "FOOTBALL FIELD 1",
        "CLUSTER": "-"
      },
      "geometry": {
        "type": "MultiPolygon",
        "coordinates": [
          [
            [
              [
                102.73300514388787,
                2.14880001637714
              ],
              [
                102.73353905687942,
                2.149098169687691
              ],
              [
                102.73398398437234,
                2.148365863206797
              ],
              [
                102.73343960249862,
                2.148036325175837
              ],
              [
                102.73300514388787,
                2.14880001637714
              ]
            ]
          ]
        ]
      }
    },
    {
      "type": "Feature",
      "properties": {
        "fid": "15",
        "id": "1",
        "BLOCK": "BLOCK A",
        "CATEGORY": "MAKMAL BAHASA DAN KOMPUTER",
        "CLUSTER": "KTKEM"
      },
      "geometry": {
        "type": "MultiPolygon",
        "coordinates": [
          [
            [
              [
                102.73061142863689,
                2.148970852332519
              ],
              [
                102.72997321632971,
                2.148259108147065
              ],
              [
                102.7303382737694,
                2.147960634680259
              ],
              [
                102.73061142863689,
                2.148310129246664
              ],
              [
                102.73054250170773,
                2.148371354563933
              ],
              [
                102.73084629076595,
                2.148779523283008
              ],
              [
                102.73061142863689,
                2.148970852332519
              ]
            ]
          ]
        ]
      }
    },
    {
      "type": "Feature",
      "properties": {
        "fid": "16",
        "id": "1",
        "BLOCK": "BLOCK A",
        "CATEGORY": "MAKMAL BAHASA DAN KOMPUTER",
        "CLUSTER": "KTKEM"
      },
      "geometry": {
        "type": "MultiPolygon",
        "coordinates": [
          [
            [
              [
                102.7309841446243,
                2.148733604307558
              ],
              [
                102.73109136429193,
                2.14793257306927
              ],
              [
                102.73119858395953,
                2.147937675180397
              ],
              [
                102.7311781611657,
                2.148034615288579
              ],
              [
                102.73153045435924,
                2.148067779008387
              ],
              [
                102.73148960877161,
                2.14826931236712
              ],
              [
                102.73140791759629,
                2.148254006037011
              ],
              [
                102.73133643781784,
                2.148805033824328
              ],
              [
                102.7309841446243,
                2.148733604307558
              ]
            ]
          ]
        ]
      }
    },
    {
      "type": "Feature",
      "properties": {
        "fid": "17",
        "id": "1",
        "BLOCK": "BLOCK A",
        "CATEGORY": "KOMPUTER",
        "CLUSTER": "KTKEM"
      },
      "geometry": {
        "type": "MultiPolygon",
        "coordinates": [
          [
            [
              [
                102.73062929858149,
                2.148325435576212
              ],
              [
                102.73106073010118,
                2.148197882825295
              ],
              [
                102.73106583579963,
                2.147912164624591
              ],
              [
                102.73043272919087,
                2.148075432174394
              ],
              [
                102.73062929858149,
                2.148325435576212
              ]
            ]
          ]
        ]
      }
    },
    {
      "type": "Feature",
      "properties": {
        "fid": "18",
        "id": "2",
        "BLOCK": "BLOCK B",
        "CATEGORY": "MAKMAL BAHASA & KOMPUTER",
        "CLUSTER": "KTKEM"
      },
      "geometry": {
        "type": "MultiPolygon",
        "coordinates": [
          [
            [
              [
                102.72925623733816,
                2.149495020554742
              ],
              [
                102.72940204101846,
                2.149577105672487
              ],
              [
                102.72972239840055,
                2.148996353369586
              ],
              [
                102.73007150580412,
                2.149170784296496
              ],
              [
                102.73017829159815,
                2.149008666141552
              ],
              [
                102.7296546304928,
                2.148733680877348
              ],
              [
                102.72925623733816,
                2.149495020554742
              ]
            ]
          ]
        ]
      }
    },
    {
      "type": "Feature",
      "properties": {
        "fid": "19",
        "id": "2",
        "BLOCK": "BLOCK B",
        "CATEGORY": "MAKMAL BAHASA & KOMPUTER",
        "CLUSTER": "KTKEM"
      },
      "geometry": {
        "type": "MultiPolygon",
        "coordinates": [
          [
            [
              [
                102.72919052300335,
                2.149669451424675
              ],
              [
                102.7294923982288,
                2.149845934402204
              ],
              [
                102.72958891615802,
                2.149694076957648
              ],
              [
                102.72963614833616,
                2.149712546107117
              ],
              [
                102.72994829142638,
                2.149160523654289
              ],
              [
                102.72978811273535,
                2.149094855542526
              ],
              [
                102.72948829108289,
                2.1496386695079
              ],
              [
                102.72926445163,
                2.149546323753851
              ],
              [
                102.72919052300335,
                2.149669451424675
              ]
            ]
          ]
        ]
      }
    },
    {
      "type": "Feature",
      "properties": {
        "fid": "20",
        "id": "4",
        "BLOCK": "BLOCK C",
        "CATEGORY": "MAKMAL TEKNOLOGI KEJURUTERAAN MEKANIKAL",
        "CLUSTER": "KTKMP"
      },
      "geometry": {
        "type": "MultiPolygon",
        "coordinates": [
          [
            [
              [
                102.72971315732224,
                2.149779240256118
              ],
              [
                102.72987949673217,
                2.149869533868582
              ],
              [
                102.73017726481169,
                2.149311355087799
              ],
              [
                102.73001913969361,
                2.149225165699045
              ],
              [
                102.72971315732224,
                2.149779240256118
              ]
            ]
          ]
        ]
      }
    },
    {
      "type": "Feature",
      "properties": {
        "fid": "21",
        "id": "4",
        "BLOCK": "BLOCK C",
        "CATEGORY": "MAKMAL TEKNOLOGI KEJURUTERAAN MEKANIKAL",
        "CLUSTER": "KTKMP"
      },
      "geometry": {
        "type": "MultiPolygon",
        "coordinates": [
          [
            [
              [
                102.72972371079773,
                2.150037530319656
              ],
              [
                102.7298792177009,
                2.150242808389762
              ],
              [
                102.73049164612195,
                2.149763186687528
              ],
              [
                102.73039373436809,
                2.149628892583893
              ],
              [
                102.72990993511387,
                2.150004916044293
              ],
              [
                102.72985617964116,
                2.14994352446525
              ],
              [
                102.72972371079773,
                2.150037530319656
              ]
            ]
          ]
        ]
      }
    },
    {
      "type": "Feature",
      "properties": {
        "fid": "22",
        "id": "4",
        "BLOCK": "BLOCK C",
        "CATEGORY": "MAKMAL TEKNOLOGI KEJURUTERAAN MEKANIKAL",
        "CLUSTER": "KTKMP"
      },
      "geometry": {
        "type": "MultiPolygon",
        "coordinates": [
          [
            [
              [
                102.73009441220586,
                2.149195768796909
              ],
              [
                102.73026623362259,
                2.149292088615184
              ],
              [
                102.73027461515511,
                2.149323497250264
              ],
              [
                102.73058054109222,
                2.149712964271568
              ],
              [
                102.73071045484632,
                2.149620832297007
              ],
              [
                102.7303563350972,
                2.149151796703937
              ],
              [
                102.730192895213,
                2.149042913420652
              ],
              [
                102.73009441220586,
                2.149195768796909
              ]
            ]
          ]
        ]
      }
    },
    {
      "type": "Feature",
      "properties": {
        "fid": "23",
        "id": "5",
        "BLOCK": "BLOCK D",
        "CATEGORY": "MAKMAL TEKNOLOGI KEJURUTERAAN MEKANIKAL",
        "CLUSTER": "KTKMP"
      },
      "geometry": {
        "type": "MultiPolygon",
        "coordinates": [
          [
            [
              [
                102.72995821230231,
                2.150341136677165
              ],
              [
                102.73014051063471,
                2.150567278679879
              ],
              [
                102.73026623362257,
                2.150479334571694
              ],
              [
                102.73020337212863,
                2.150387202643399
              ],
              [
                102.73068531024875,
                2.149995641886083
              ],
              [
                102.73057006417655,
                2.149863725672491
              ],
              [
                102.72995821230231,
                2.150341136677165
              ]
            ]
          ]
        ]
      }
    },
    {
      "type": "Feature",
      "properties": {
        "fid": "24",
        "id": "5",
        "BLOCK": "BLOCK D",
        "CATEGORY": "MAKMAL TEKNOLOGI KEJURUTERAAN MEKANIKAL",
        "CLUSTER": "KTKMP"
      },
      "geometry": {
        "type": "MultiPolygon",
        "coordinates": [
          [
            [
              [
                102.73036681201283,
                2.150619626360915
              ],
              [
                102.73097447312081,
                2.15045001986784
              ],
              [
                102.73094513775695,
                2.150288788986574
              ],
              [
                102.73032490435023,
                2.150456301590143
              ],
              [
                102.73036681201283,
                2.150619626360915
              ]
            ]
          ]
        ]
      }
    },
    {
      "type": "Feature",
      "properties": {
        "fid": "25",
        "id": "5",
        "BLOCK": "BLOCK D",
        "CATEGORY": "MAKMAL TEKNOLOGI KEJURUTERAAN MEKANIKAL",
        "CLUSTER": "KTKMP"
      },
      "geometry": {
        "type": "MultiPolygon",
        "coordinates": [
          [
            [
              [
                102.73100171310155,
                2.150274131632887
              ],
              [
                102.73112953147253,
                2.150171530153135
              ],
              [
                102.73073350406077,
                2.149629207931288
              ],
              [
                102.73058892262476,
                2.149725527722214
              ],
              [
                102.73100171310155,
                2.150274131632887
              ]
            ]
          ]
        ]
      }
    },
    {
      "type": "Feature",
      "properties": {
        "fid": "26",
        "id": "6",
        "BLOCK": "BLOCK E",
        "CATEGORY": "MAKMAL TEKNOLOGI KEJURUTERAAN MEKANIKAL",
        "CLUSTER": "KTKMP"
      },
      "geometry": {
        "type": "MultiPolygon",
        "coordinates": [
          [
            [
              [
                102.73036471662974,
                2.15123942276785
              ],
              [
                102.73050720268263,
                2.151203826359404
              ],
              [
                102.73044224580558,
                2.150914867248328
              ],
              [
                102.73110229149184,
                2.150724321717599
              ],
              [
                102.73106038382923,
                2.150571466494429
              ],
              [
                102.73024737517441,
                2.150785045021185
              ],
              [
                102.73036471662974,
                2.15123942276785
              ]
            ]
          ]
        ]
      }
    },
    {
      "type": "Feature",
      "properties": {
        "fid": "27",
        "id": "6",
        "BLOCK": "BLOCK E",
        "CATEGORY": "MAKMAL TEKNOLOGI KEJURUTERAAN MEKANIKAL",
        "CLUSTER": "KTKMP"
      },
      "geometry": {
        "type": "MultiPolygon",
        "coordinates": [
          [
            [
              [
                102.73051579033893,
                2.151196488482103
              ],
              [
                102.7313317278775,
                2.150974302182444
              ],
              [
                102.73121341693442,
                2.150542159928956
              ],
              [
                102.73107062786517,
                2.150570697628716
              ],
              [
                102.73113590286826,
                2.150849959376766
              ],
              [
                102.7304709137743,
                2.151035454378237
              ],
              [
                102.73051579033893,
                2.151196488482103
              ]
            ]
          ]
        ]
      }
    },
    {
      "type": "Feature",
      "properties": {
        "fid": "28",
        "id": "5",
        "BLOCK": "BLOCK D",
        "CATEGORY": "MAKMAL TEKNOLOGI KEJURUTERAAN MEKANIKAL",
        "CLUSTER": "KTKMP"
      },
      "geometry": {
        "type": "MultiPolygon",
        "coordinates": [
          [
            [
              [
                102.73101555208132,
                2.150295512644507
              ],
              [
                102.73108082708441,
                2.150554390371775
              ],
              [
                102.73123381537287,
                2.150497314971113
              ],
              [
                102.73123381537287,
                2.150497314971113
              ],
              [
                102.73116650052593,
                2.1502445524568
              ],
              [
                102.73101555208132,
                2.150295512644507
              ]
            ]
          ]
        ]
      }
    }
  ]
}