{
  "type": "FeatureCollection",
  "name": "CollegePointcollege_point_8",
  "crs": {
    "type": "name",
    "properties": {
      "name": "urn:ogc:def:crs:OGC:1.3:CRS84"
    }
  },
  "features": [
    {
      "type": "Feature",
      "properties": {
        "fid": "1",
        "id": "1",
        "Blok No": "A1",
        "Level Name": "ARAS 1",
        "Room No": "B101",
        "Name": "RUMAH PELAJAR"
      },
      "geometry": {
        "type": "Point",
        "coordinates": [
          102.72937547075374,
          2.145984647992985
        ]
      }
    },
    {
      "type": "Feature",
      "properties": {
        "fid": "2",
        "id": "2",
        "Blok No": "A1",
        "Level Name": "ARAS 1",
        "Room No": "B102",
        "Name": "RUMAH PELAJAR"
      },
      "geometry": {
        "type": "Point",
        "coordinates": [
          102.7293328316414,
          2.145996690902402
        ]
      }
    },
    {
      "type": "Feature",
      "properties": {
        "fid": "3",
        "id": "4",
        "Blok No": "A1",
        "Level Name": "ARAS 1",
        "Room No": "B103",
        "Name": "RUMAH PELAJAR"
      },
      "geometry": {
        "type": "Point",
        "coordinates": [
          102.72934313696463,
          2.145867138267512
        ]
      }
    },
    {
      "type": "Feature",
      "properties": {
        "fid": "4",
        "id": "4",
        "Blok No": "A1",
        "Level Name": "ARAS A1",
        "Room No": "B104",
        "Name": "NULLRUMAH PELAJAR"
      },
      "geometry": {
        "type": "Point",
        "coordinates": [
          102.72930191567171,
          2.145878915779775
        ]
      }
    },
    {
      "type": "Feature",
      "properties": {
        "fid": "5",
        "id": "6",
        "Blok No": "A1",
        "Level Name": "ARAS 1",
        "Room No": "B105",
        "Name": "RUMAH PELAJAR"
      },
      "geometry": {
        "type": "Point",
        "coordinates": [
          102.72916004356344,
          2.146043969853444
        ]
      }
    },
    {
      "type": "Feature",
      "properties": {
        "fid": "6",
        "id": "7",
        "Blok No": "A1",
        "Level Name": "ARAS 1",
        "Room No": "B106",
        "Name": "RUMAH PELAJAR"
      },
      "geometry": {
        "type": "Point",
        "coordinates": [
          102.72910188414257,
          2.146063732763451
        ]
      }
    },
    {
      "type": "Feature",
      "properties": {
        "fid": "7",
        "id": "8",
        "Blok No": "A1",
        "Level Name": "ARAS 1",
        "Room No": "B107",
        "Name": "RUMAH PEMBANTU FELO"
      },
      "geometry": {
        "type": "Point",
        "coordinates": [
          102.72913181083487,
          2.145953060467414
        ]
      }
    },
    {
      "type": "Feature",
      "properties": {
        "fid": "8",
        "id": "9",
        "Blok No": "A1",
        "Level Name": "ARAS 1",
        "Room No": "B108",
        "Name": "RUMAH PEMBANTU FELO"
      },
      "geometry": {
        "type": "Point",
        "coordinates": [
          102.72906687555913,
          2.145978469923136
        ]
      }
    },
    {
      "type": "Feature",
      "properties": {
        "fid": "9",
        "id": "5",
        "Blok No": "A1",
        "Level Name": "ARAS 1",
        "Room No": null,
        "Name": "DOBI"
      },
      "geometry": {
        "type": "Point",
        "coordinates": [
          102.72931492231488,
          2.145962014754837
        ]
      }
    },
    {
      "type": "Feature",
      "properties": {
        "fid": "10",
        "id": "10",
        "Blok No": "A2",
        "Level Name": "ARAS 1",
        "Room No": "B101",
        "Name": "RUMAH PELAJAR"
      },
      "geometry": {
        "type": "Point",
        "coordinates": [
          102.72884679787039,
          2.146152025551078
        ]
      }
    },
    {
      "type": "Feature",
      "properties": {
        "fid": "11",
        "id": "11",
        "Blok No": "A2",
        "Level Name": "ARAS 1",
        "Room No": "B102",
        "Name": "RUMAH PELAJAR"
      },
      "geometry": {
        "type": "Point",
        "coordinates": [
          102.72880151426378,
          2.146171625918118
        ]
      }
    },
    {
      "type": "Feature",
      "properties": {
        "fid": "12",
        "id": "12",
        "Blok No": "A2",
        "Level Name": "ARAS 1",
        "Room No": null,
        "Name": "DOBI"
      },
      "geometry": {
        "type": "Point",
        "coordinates": [
          102.72879326402995,
          2.146144234658633
        ]
      }
    },
    {
      "type": "Feature",
      "properties": {
        "fid": "13",
        "id": "13",
        "Blok No": "A2",
        "Level Name": "ARAS 1",
        "Room No": "B103",
        "Name": "RUMAH PELAJAR"
      },
      "geometry": {
        "type": "Point",
        "coordinates": [
          102.72881517149537,
          2.146073817805511
        ]
      }
    },
    {
      "type": "Feature",
      "properties": {
        "fid": "14",
        "id": "14",
        "Blok No": "A2",
        "Level Name": "ARAS 1",
        "Room No": "B104",
        "Name": "RUMAH PELAJAR"
      },
      "geometry": {
        "type": "Point",
        "coordinates": [
          102.72876822692662,
          2.146098072499364
        ]
      }
    },
    {
      "type": "Feature",
      "properties": {
        "fid": "15",
        "id": "15",
        "Blok No": "A2",
        "Level Name": "ARAS 1",
        "Room No": "B105",
        "Name": "RUMAH PELAJAR"
      },
      "geometry": {
        "type": "Point",
        "coordinates": [
          102.72865477755214,
          2.146232646929774
        ]
      }
    },
    {
      "type": "Feature",
      "properties": {
        "fid": "16",
        "id": "16",
        "Blok No": "A2",
        "Level Name": "ARAS 1",
        "Room No": "B106",
        "Name": "RUMAH PELAJAR"
      },
      "geometry": {
        "type": "Point",
        "coordinates": [
          102.72859218479381,
          2.146260813671022
        ]
      }
    },
    {
      "type": "Feature",
      "properties": {
        "fid": "17",
        "id": "17",
        "Blok No": "A2",
        "Level Name": "ARAS 1",
        "Room No": "B107",
        "Name": "RUMAH PELAJAR"
      },
      "geometry": {
        "type": "Point",
        "coordinates": [
          102.72861800430663,
          2.146167706943006
        ]
      }
    },
    {
      "type": "Feature",
      "properties": {
        "fid": "18",
        "id": "18",
        "Blok No": "A2",
        "Level Name": "ARAS 1",
        "Room No": "B108",
        "Name": "RUMAH PELAJAR"
      },
      "geometry": {
        "type": "Point",
        "coordinates": [
          102.72855384672934,
          2.146187267179984
        ]
      }
    },
    {
      "type": "Feature",
      "properties": {
        "fid": "19",
        "id": "19",
        "Blok No": "A3",
        "Level Name": "ARAS 1",
        "Room No": "P101",
        "Name": "RUMAH PENGETUA"
      },
      "geometry": {
        "type": "Point",
        "coordinates": [
          102.72773060816182,
          2.145957641566836
        ]
      }
    },
    {
      "type": "Feature",
      "properties": {
        "fid": "20",
        "id": "20",
        "Blok No": "A3",
        "Level Name": "ARAS 1",
        "Room No": "F101",
        "Name": "RUMAH FELO"
      },
      "geometry": {
        "type": "Point",
        "coordinates": [
          102.72788463077852,
          2.145988946976732
        ]
      }
    },
    {
      "type": "Feature",
      "properties": {
        "fid": "21",
        "id": "21",
        "Blok No": "A3",
        "Level Name": "ARAS 1",
        "Room No": "F102",
        "Name": "RUMAH FELO"
      },
      "geometry": {
        "type": "Point",
        "coordinates": [
          102.72785582980141,
          2.145892526314253
        ]
      }
    },
    {
      "type": "Feature",
      "properties": {
        "fid": "22",
        "id": "22",
        "Blok No": "A4",
        "Level Name": "ARAS 1",
        "Room No": "F201",
        "Name": "RUMAH FELO"
      },
      "geometry": {
        "type": "Point",
        "coordinates": [
          102.72760242976769,
          2.145615976399902
        ]
      }
    },
    {
      "type": "Feature",
      "properties": {
        "fid": "23",
        "id": "23",
        "Blok No": "A4",
        "Level Name": "ARAS 1",
        "Room No": "F201",
        "Name": "RUMAH FELO"
      },
      "geometry": {
        "type": "Point",
        "coordinates": [
          102.72766788318448,
          2.145528053899727
        ]
      }
    },
    {
      "type": "Feature",
      "properties": {
        "fid": "24",
        "id": "24",
        "Blok No": "A5",
        "Level Name": "ARAS 1",
        "Room No": null,
        "Name": "BILIK GERAKAN FELO"
      },
      "geometry": {
        "type": "Point",
        "coordinates": [
          102.72798927453246,
          2.14489388699575
        ]
      }
    },
    {
      "type": "Feature",
      "properties": {
        "fid": "25",
        "id": "25",
        "Blok No": "A5",
        "Level Name": "ARAS 1",
        "Room No": null,
        "Name": "PARCEL OASIS"
      },
      "geometry": {
        "type": "Point",
        "coordinates": [
          102.72804860142023,
          2.144868748483989
        ]
      }
    },
    {
      "type": "Feature",
      "properties": {
        "fid": "26",
        "id": "26",
        "Blok No": "A5",
        "Level Name": "ARAS 1",
        "Room No": null,
        "Name": "BILIK PEMBELAJARAN"
      },
      "geometry": {
        "type": "Point",
        "coordinates": [
          102.7280868119581,
          2.144852659836462
        ]
      }
    },
    {
      "type": "Feature",
      "properties": {
        "fid": "27",
        "id": "27",
        "Blok No": "A5",
        "Level Name": "ARAS 1",
        "Room No": null,
        "Name": "PELJABAT KOLEK KEDIAMAN"
      },
      "geometry": {
        "type": "Point",
        "coordinates": [
          102.72806569560822,
          2.144930086452686
        ]
      }
    },
    {
      "type": "Feature",
      "properties": {
        "fid": "28",
        "id": "28",
        "Blok No": "A5",
        "Level Name": "ARAS 1",
        "Room No": null,
        "Name": "FARMASI PKU"
      },
      "geometry": {
        "type": "Point",
        "coordinates": [
          102.72824468181196,
          2.14487075956493
        ]
      }
    },
    {
      "type": "Feature",
      "properties": {
        "fid": "29",
        "id": "29",
        "Blok No": "A5",
        "Level Name": "ARAS 1",
        "Room No": null,
        "Name": "PUSAT KESIHATAN UNIVERSITI"
      },
      "geometry": {
        "type": "Point",
        "coordinates": [
          102.72822557654302,
          2.144812438217644
        ]
      }
    },
    {
      "type": "Feature",
      "properties": {
        "fid": "30",
        "id": "30",
        "Blok No": "A6",
        "Level Name": "ARAS 1",
        "Room No": "B101",
        "Name": "RUMAH PELAJAR"
      },
      "geometry": {
        "type": "Point",
        "coordinates": [
          102.72854196554249,
          2.144751860931105
        ]
      }
    },
    {
      "type": "Feature",
      "properties": {
        "fid": "31",
        "id": "31",
        "Blok No": "A6",
        "Level Name": "ARAS 1",
        "Room No": "B102",
        "Name": "RUMAH PELAJAR"
      },
      "geometry": {
        "type": "Point",
        "coordinates": [
          102.72860095355415,
          2.144730295421466
        ]
      }
    },
    {
      "type": "Feature",
      "properties": {
        "fid": "32",
        "id": "32",
        "Blok No": "A6",
        "Level Name": "ARAS 1",
        "Room No": "B103",
        "Name": "RUMAH OKU"
      },
      "geometry": {
        "type": "Point",
        "coordinates": [
          102.7285146915156,
          2.144669404570718
        ]
      }
    },
    {
      "type": "Feature",
      "properties": {
        "fid": "33",
        "id": "33",
        "Blok No": "A6",
        "Level Name": "ARAS 1",
        "Room No": "B104",
        "Name": "RUMAH OKU"
      },
      "geometry": {
        "type": "Point",
        "coordinates": [
          102.72856797101,
          2.144652279018945
        ]
      }
    },
    {
      "type": "Feature",
      "properties": {
        "fid": "34",
        "id": "34",
        "Blok No": "A6",
        "Level Name": "ARAS",
        "Room No": "B105",
        "Name": "RUMAH PELAJAR"
      },
      "geometry": {
        "type": "Point",
        "coordinates": [
          102.72873795796833,
          2.144689701520967
        ]
      }
    },
    {
      "type": "Feature",
      "properties": {
        "fid": "35",
        "id": "35",
        "Blok No": "A6",
        "Level Name": "ARAS 1",
        "Room No": "B106",
        "Name": "RUMAH PELAJAR"
      },
      "geometry": {
        "type": "Point",
        "coordinates": [
          102.72881343725207,
          2.14466369605346
        ]
      }
    },
    {
      "type": "Feature",
      "properties": {
        "fid": "36",
        "id": "36",
        "Blok No": "A6",
        "Level Name": "ARAS 1",
        "Room No": "B107",
        "Name": "RUMAH PELAJAR"
      },
      "geometry": {
        "type": "Point",
        "coordinates": [
          102.72869672978814,
          2.144614856516923
        ]
      }
    },
    {
      "type": "Feature",
      "properties": {
        "fid": "37",
        "id": "37",
        "Blok No": "A6",
        "Level Name": "ARAS 1",
        "Room No": "B108",
        "Name": "RUMAH PELAJAR"
      },
      "geometry": {
        "type": "Point",
        "coordinates": [
          102.72877538047037,
          2.144591388168197
        ]
      }
    },
    {
      "type": "Feature",
      "properties": {
        "fid": "38",
        "id": "38",
        "Blok No": "A7",
        "Level Name": "ARKED ANGGERIK",
        "Room No": null,
        "Name": "AKAK WESTERN"
      },
      "geometry": {
        "type": "Point",
        "coordinates": [
          102.72901587903311,
          2.145530285341093
        ]
      }
    },
    {
      "type": "Feature",
      "properties": {
        "fid": "39",
        "id": "39",
        "Blok No": "A7",
        "Level Name": "ARKED ANGGERIK",
        "Room No": null,
        "Name": "WARUNG WAK"
      },
      "geometry": {
        "type": "Point",
        "coordinates": [
          102.72898030440332,
          2.145428643541693
        ]
      }
    },
    {
      "type": "Feature",
      "properties": {
        "fid": "40",
        "id": "40",
        "Blok No": "A7",
        "Level Name": "ARKED ANGGERIK",
        "Room No": null,
        "Name": "NASI LEMAK AYAM GUNTING"
      },
      "geometry": {
        "type": "Point",
        "coordinates": [
          102.72893625962358,
          2.145299897262453
        ]
      }
    },
    {
      "type": "Feature",
      "properties": {
        "fid": "41",
        "id": "41",
        "Blok No": "A7",
        "Level Name": "ARKED ANGGERIK",
        "Room No": null,
        "Name": "MESIN ATM BANK RAKYAT"
      },
      "geometry": {
        "type": "Point",
        "coordinates": [
          102.72884986409409,
          2.145227053972883
        ]
      }
    },
    {
      "type": "Feature",
      "properties": {
        "fid": "42",
        "id": "42",
        "Blok No": "A7",
        "Level Name": "ARKED ARKED ANGGERIK",
        "Room No": null,
        "Name": "YUSUF DELICIOUS DESSERT"
      },
      "geometry": {
        "type": "Point",
        "coordinates": [
          102.728865110364,
          2.145135576353423
        ]
      }
    },
    {
      "type": "Feature",
      "properties": {
        "fid": "43",
        "id": "43",
        "Blok No": "A7",
        "Level Name": "ARKED ANGGERIK",
        "Room No": null,
        "Name": "AIR BALANG"
      },
      "geometry": {
        "type": "Point",
        "coordinates": [
          102.72882784170423,
          2.145045792763953
        ]
      }
    },
    {
      "type": "Feature",
      "properties": {
        "fid": "44",
        "id": "44",
        "Blok No": "A7",
        "Level Name": "ARKED ANGGERIK",
        "Room No": null,
        "Name": "TANDAS LELAKI"
      },
      "geometry": {
        "type": "Point",
        "coordinates": [
          102.72878549095448,
          2.145006830074184
        ]
      }
    },
    {
      "type": "Feature",
      "properties": {
        "fid": "45",
        "id": "45",
        "Blok No": "A7",
        "Level Name": "ARKED ANGGERIK",
        "Room No": null,
        "Name": "GRENLY MART"
      },
      "geometry": {
        "type": "Point",
        "coordinates": [
          102.72875330438467,
          2.145061039033863
        ]
      }
    },
    {
      "type": "Feature",
      "properties": {
        "fid": "46",
        "id": "46",
        "Blok No": "A7",
        "Level Name": "ARKED ANGGERIK",
        "Room No": null,
        "Name": "WAWA STUDENT CAFE"
      },
      "geometry": {
        "type": "Point",
        "coordinates": [
          102.72869909542499,
          2.145072897243793
        ]
      }
    },
    {
      "type": "Feature",
      "properties": {
        "fid": "47",
        "id": "47",
        "Blok No": "A7",
        "Level Name": "ARKED ANGGERIK",
        "Room No": null,
        "Name": "SECANGKIR CAFE"
      },
      "geometry": {
        "type": "Point",
        "coordinates": [
          102.72875330438467,
          2.145160986803273
        ]
      }
    },
    {
      "type": "Feature",
      "properties": {
        "fid": "48",
        "id": "48",
        "Blok No": "A7",
        "Level Name": "ARKDE ANGGERIK",
        "Room No": null,
        "Name": "PANAS EXPRESS"
      },
      "geometry": {
        "type": "Point",
        "coordinates": [
          102.72863811034534,
          2.145088143513703
        ]
      }
    },
    {
      "type": "Feature",
      "properties": {
        "fid": "49",
        "id": "49",
        "Blok No": "A7",
        "Level Name": "ARKED ANGGERIK",
        "Room No": null,
        "Name": "TANDAS PEREMPUAN"
      },
      "geometry": {
        "type": "Point",
        "coordinates": [
          102.72858559541565,
          2.145057650973883
        ]
      }
    },
    {
      "type": "Feature",
      "properties": {
        "fid": "50",
        "id": "50",
        "Blok No": "A7",
        "Level Name": "ARKED ANGGERIK",
        "Room No": null,
        "Name": "LOKCING ODEN"
      },
      "geometry": {
        "type": "Point",
        "coordinates": [
          102.72858051332568,
          2.145110165903573
        ]
      }
    },
    {
      "type": "Feature",
      "properties": {
        "fid": "51",
        "id": "51",
        "Blok No": "A7",
        "Level Name": "ARKED ANGGERIK",
        "Room No": null,
        "Name": "MESIN ATM RHB BANK"
      },
      "geometry": {
        "type": "Point",
        "coordinates": [
          102.72873217358955,
          2.1452481439823
        ]
      }
    },
    {
      "type": "Feature",
      "properties": {
        "fid": "52",
        "id": "52",
        "Blok No": "A7",
        "Level Name": "ARKED ANGGERIK",
        "Room No": null,
        "Name": "MESIN FARM FRESH"
      },
      "geometry": {
        "type": "Point",
        "coordinates": [
          102.72870888589397,
          2.145188630982477
        ]
      }
    },
    {
      "type": "Feature",
      "properties": {
        "fid": "53",
        "id": "53",
        "Blok No": "A7",
        "Level Name": "ARKDE ANGGERIK",
        "Room No": null,
        "Name": "ZESTY CHICKEN & RESIPI CIK KU"
      },
      "geometry": {
        "type": "Point",
        "coordinates": [
          102.72878930202877,
          2.145470160130998
        ]
      }
    },
    {
      "type": "Feature",
      "properties": {
        "fid": "54",
        "id": "54",
        "Blok No": "A7",
        "Level Name": "ARKED ANGGERIK",
        "Room No": null,
        "Name": "HABANG\"SBOBSTALL"
      },
      "geometry": {
        "type": "Point",
        "coordinates": [
          102.7288449933574,
          2.145585910735603
        ]
      }
    },
    {
      "type": "Feature",
      "properties": {
        "fid": "55",
        "id": "55",
        "Blok No": "A7",
        "Level Name": "ARKED ANGGERIK",
        "Room No": null,
        "Name": "TANDAS PEREMPUAN"
      },
      "geometry": {
        "type": "Point",
        "coordinates": [
          102.72885364790669,
          2.145539200037376
        ]
      }
    },
    {
      "type": "Feature",
      "properties": {
        "fid": "56",
        "id": "56",
        "Blok No": "A7",
        "Level Name": "ARKED ANGGERIK",
        "Room No": null,
        "Name": "SHAWARMA 4U"
      },
      "geometry": {
        "type": "Point",
        "coordinates": [
          102.72889022119124,
          2.145524977093387
        ]
      }
    },
    {
      "type": "Feature",
      "properties": {
        "fid": "57",
        "id": "57",
        "Blok No": "A7",
        "Level Name": "ARKED ANGGERIK",
        "Room No": null,
        "Name": "WAN X DAYA"
      },
      "geometry": {
        "type": "Point",
        "coordinates": [
          102.7289156193055,
          2.145515833772251
        ]
      }
    },
    {
      "type": "Feature",
      "properties": {
        "fid": "58",
        "id": "58",
        "Blok No": "A7",
        "Level Name": "ARKED ANGGERIK",
        "Room No": null,
        "Name": "ISMAIL AYUNI"
      },
      "geometry": {
        "type": "Point",
        "coordinates": [
          102.7289400014952,
          2.145508722300257
        ]
      }
    },
    {
      "type": "Feature",
      "properties": {
        "fid": "59",
        "id": "59",
        "Blok No": "A7",
        "Level Name": "ARKED ANGGERIK",
        "Room No": null,
        "Name": "THE TASTE HUB"
      },
      "geometry": {
        "type": "Point",
        "coordinates": [
          102.7289674314586,
          2.14549856305455
        ]
      }
    },
    {
      "type": "Feature",
      "properties": {
        "fid": "60",
        "id": "60",
        "Blok No": "A7",
        "Level Name": "ARKED ANGGERIK",
        "Room No": null,
        "Name": "TANDAS LELAKI"
      },
      "geometry": {
        "type": "Point",
        "coordinates": [
          102.72898978179916,
          2.145502626752833
        ]
      }
    },
    {
      "type": "Feature",
      "properties": {
        "fid": "61",
        "id": "61",
        "Blok No": "A7",
        "Level Name": "ARKED ANGGERIK",
        "Room No": null,
        "Name": "SELERA BONDA"
      },
      "geometry": {
        "type": "Point",
        "coordinates": [
          102.72893796964605,
          2.145411193541475
        ]
      }
    },
    {
      "type": "Feature",
      "properties": {
        "fid": "62",
        "id": "62",
        "Blok No": "A7",
        "Level Name": "ARKED ANGGERIK",
        "Room No": null,
        "Name": "AIR BUAH-BUAHAN"
      },
      "geometry": {
        "type": "Point",
        "coordinates": [
          102.72890342821066,
          2.145314680707264
        ]
      }
    },
    {
      "type": "Feature",
      "properties": {
        "fid": "63",
        "id": "63",
        "Blok No": "A8",
        "Level Name": "SURAU",
        "Room No": null,
        "Name": "RUANG SOLAT MUSLIMIN"
      },
      "geometry": {
        "type": "Point",
        "coordinates": [
          102.72840727059253,
          2.145766415869525
        ]
      }
    },
    {
      "type": "Feature",
      "properties": {
        "fid": "64",
        "id": "64",
        "Blok No": "A8",
        "Level Name": "SURAU",
        "Room No": null,
        "Name": "RUANG SOLAT MISLIMAT"
      },
      "geometry": {
        "type": "Point",
        "coordinates": [
          102.7284184431595,
          2.145679975482965
        ]
      }
    },
    {
      "type": "Feature",
      "properties": {
        "fid": "65",
        "id": "65",
        "Blok No": "A8",
        "Level Name": "SURAU",
        "Room No": null,
        "Name": "TEMPAT WHUDU MUSLIMIN"
      },
      "geometry": {
        "type": "Point",
        "coordinates": [
          102.72852781670984,
          2.145737014377498
        ]
      }
    },
    {
      "type": "Feature",
      "properties": {
        "fid": "66",
        "id": "66",
        "Blok No": "A8",
        "Level Name": "SURAU",
        "Room No": null,
        "Name": "TEMPAT WUHDU MUSLIMAT"
      },
      "geometry": {
        "type": "Point",
        "coordinates": [
          102.72848195038227,
          2.145655866259502
        ]
      }
    },
    {
      "type": "Feature",
      "properties": {
        "fid": "67",
        "id": "67",
        "Blok No": "A9",
        "Level Name": "DEWAN SEBERGUNA",
        "Room No": null,
        "Name": "TANDAS OKU"
      },
      "geometry": {
        "type": "Point",
        "coordinates": [
          102.72827358057518,
          2.145452186538358
        ]
      }
    },
    {
      "type": "Feature",
      "properties": {
        "fid": "68",
        "id": "68",
        "Blok No": "A7",
        "Level Name": "DEWAN SEBERGUNA",
        "Room No": null,
        "Name": "TANDAS PEREMPUAN"
      },
      "geometry": {
        "type": "Point",
        "coordinates": [
          102.72823208782275,
          2.145465441167603
        ]
      }
    },
    {
      "type": "Feature",
      "properties": {
        "fid": "69",
        "id": "69",
        "Blok No": "A9",
        "Level Name": "DEWAN SEBERGUNA",
        "Room No": null,
        "Name": "TANDAS LELAKI"
      },
      "geometry": {
        "type": "Point",
        "coordinates": [
          102.72819059507033,
          2.1453893711215
        ]
      }
    },
    {
      "type": "Feature",
      "properties": {
        "fid": "70",
        "id": "70",
        "Blok No": "A9",
        "Level Name": "DEWAN SEBERGUNA",
        "Room No": null,
        "Name": "BILIK AV"
      },
      "geometry": {
        "type": "Point",
        "coordinates": [
          102.72822517236402,
          2.145358827845413
        ]
      }
    },
    {
      "type": "Feature",
      "properties": {
        "fid": "71",
        "id": "71",
        "Blok No": "A9",
        "Level Name": "DEWAN SEBERGUNA",
        "Room No": null,
        "Name": "PENTAS UTAMA"
      },
      "geometry": {
        "type": "Point",
        "coordinates": [
          102.72841433531266,
          2.14534526224947
        ]
      }
    },
    {
      "type": "Feature",
      "properties": {
        "fid": "72",
        "id": "72",
        "Blok No": "A9",
        "Level Name": "DEWAN SEBERGUNA",
        "Room No": null,
        "Name": "BILIK VIP"
      },
      "geometry": {
        "type": "Point",
        "coordinates": [
          102.72839493710913,
          2.14528767383274
        ]
      }
    },
    {
      "type": "Feature",
      "properties": {
        "fid": "73",
        "id": "73",
        "Blok No": "A10",
        "Level Name": "ARAS 1",
        "Room No": "B101",
        "Name": "RUMAH PELAJAR"
      },
      "geometry": {
        "type": "Point",
        "coordinates": [
          102.72777817464177,
          2.143980116016105
        ]
      }
    },
    {
      "type": "Feature",
      "properties": {
        "fid": "74",
        "id": "74",
        "Blok No": "A10",
        "Level Name": "ARAS 1",
        "Room No": null,
        "Name": "RUMAH PELAJAR"
      },
      "geometry": {
        "type": "Point",
        "coordinates": [
          102.7277290705113,
          2.143954119711738
        ]
      }
    },
    {
      "type": "Feature",
      "properties": {
        "fid": "75",
        "id": "75",
        "Blok No": "A10",
        "Level Name": "ARAS 1",
        "Room No": null,
        "Name": "DOBI"
      },
      "geometry": {
        "type": "Point",
        "coordinates": [
          102.72772329355477,
          2.144017666233523
        ]
      }
    },
    {
      "type": "Feature",
      "properties": {
        "fid": "76",
        "id": "76",
        "Blok No": "A10",
        "Level Name": "ARAS 1",
        "Room No": null,
        "Name": "RUMAH PELAJAR"
      },
      "geometry": {
        "type": "Point",
        "coordinates": [
          102.72773051475043,
          2.144060993407468
        ]
      }
    },
    {
      "type": "Feature",
      "properties": {
        "fid": "77",
        "id": "77",
        "Blok No": "A10",
        "Level Name": "ARAS 1",
        "Room No": "B104",
        "Name": "RUMAH PELAJAR"
      },
      "geometry": {
        "type": "Point",
        "coordinates": [
          102.7276741894243,
          2.144027775907444
        ]
      }
    },
    {
      "type": "Feature",
      "properties": {
        "fid": "78",
        "id": "78",
        "Blok No": "A10",
        "Level Name": "ARAS 1",
        "Room No": "B105",
        "Name": "RUMAH PELAJAR"
      },
      "geometry": {
        "type": "Point",
        "coordinates": [
          102.72758861790321,
          2.143871910758171
        ]
      }
    },
    {
      "type": "Feature",
      "properties": {
        "fid": "79",
        "id": "79",
        "Blok No": "A10",
        "Level Name": "ARAS 1",
        "Room No": "B106",
        "Name": "RUMAH PELAJAR"
      },
      "geometry": {
        "type": "Point",
        "coordinates": [
          102.72753286375558,
          2.143844853598293
        ]
      }
    },
    {
      "type": "Feature",
      "properties": {
        "fid": "80",
        "id": "80",
        "Blok No": "A10",
        "Level Name": "ARAS 1",
        "Room No": "B107",
        "Name": "RUMAH PELAJAR"
      },
      "geometry": {
        "type": "Point",
        "coordinates": [
          102.72753614341133,
          2.143939143700898
        ]
      }
    },
    {
      "type": "Feature",
      "properties": {
        "fid": "81",
        "id": "81",
        "Blok No": "A10",
        "Level Name": "ARAS 1",
        "Room No": "B108",
        "Name": "RUMAH PELAJAR"
      },
      "geometry": {
        "type": "Point",
        "coordinates": [
          102.72747546978009,
          2.143913726368892
        ]
      }
    },
    {
      "type": "Feature",
      "properties": {
        "fid": "82",
        "id": "82",
        "Blok No": "A11",
        "Level Name": "ARAS 1",
        "Room No": "B101",
        "Name": "RUMAH PELAJAR"
      },
      "geometry": {
        "type": "Point",
        "coordinates": [
          102.72758835582822,
          2.144511852762466
        ]
      }
    },
    {
      "type": "Feature",
      "properties": {
        "fid": "83",
        "id": "84",
        "Blok No": "A11",
        "Level Name": "ARAS 1",
        "Room No": "B102",
        "Name": "RUMAH PELAJAR"
      },
      "geometry": {
        "type": "Point",
        "coordinates": [
          102.72755443222003,
          2.144489657997047
        ]
      }
    },
    {
      "type": "Feature",
      "properties": {
        "fid": "84",
        "id": "87",
        "Blok No": "A11",
        "Level Name": "ARAS 1",
        "Room No": "B103",
        "Name": "RUMAH PELAJAR"
      },
      "geometry": {
        "type": "Point",
        "coordinates": [
          102.72752555447258,
          2.144602543737092
        ]
      }
    },
    {
      "type": "Feature",
      "properties": {
        "fid": "85",
        "id": "88",
        "Blok No": "A11",
        "Level Name": "ARAS 1",
        "Room No": "B104",
        "Name": "RUMAH PELAJAR"
      },
      "geometry": {
        "type": "Point",
        "coordinates": [
          102.7274993019749,
          2.14458941748825
        ]
      }
    },
    {
      "type": "Feature",
      "properties": {
        "fid": "86",
        "id": "85",
        "Blok No": "A11",
        "Level Name": "ARAS 1",
        "Room No": null,
        "Name": "DOBI"
      },
      "geometry": {
        "type": "Point",
        "coordinates": [
          102.72752817972236,
          2.144565790240333
        ]
      }
    },
    {
      "type": "Feature",
      "properties": {
        "fid": "87",
        "id": "86",
        "Blok No": "A11",
        "Level Name": "ARAS 1",
        "Room No": null,
        "Name": "BARBERSHOP"
      },
      "geometry": {
        "type": "Point",
        "coordinates": [
          102.72755968271957,
          2.144523786244037
        ]
      }
    },
    {
      "type": "Feature",
      "properties": {
        "fid": "88",
        "id": "89",
        "Blok No": "A11",
        "Level Name": "ARAS 1",
        "Room No": null,
        "Name": "BILIK PEMBELAJARAN"
      },
      "geometry": {
        "type": "Point",
        "coordinates": [
          102.72732472286529,
          2.144368896507697
        ]
      }
    },
    {
      "type": "Feature",
      "properties": {
        "fid": "89",
        "id": "90",
        "Blok No": "A11",
        "Level Name": "ARAS 1",
        "Room No": null,
        "Name": "KEDAI CHIPMART"
      },
      "geometry": {
        "type": "Point",
        "coordinates": [
          102.72730240824227,
          2.144350519759318
        ]
      }
    },
    {
      "type": "Feature",
      "properties": {
        "fid": "90",
        "id": "92",
        "Blok No": "A11",
        "Level Name": "ARAS 1",
        "Room No": null,
        "Name": "PEJABAT KOLEJ KEDIAMAN"
      },
      "geometry": {
        "type": "Point",
        "coordinates": [
          102.72722365074921,
          2.144438465626562
        ]
      }
    },
    {
      "type": "Feature",
      "properties": {
        "fid": "91",
        "id": "93",
        "Blok No": "A12",
        "Level Name": "ARAS 1",
        "Room No": "B101",
        "Name": "RUMAH PELAJAR"
      },
      "geometry": {
        "type": "Point",
        "coordinates": [
          102.72743367073068,
          2.144833565716719
        ]
      }
    },
    {
      "type": "Feature",
      "properties": {
        "fid": "92",
        "id": "94",
        "Blok No": "A12",
        "Level Name": "ARAS 1",
        "Room No": "B102",
        "Name": "RUMAH PELAJAR"
      },
      "geometry": {
        "type": "Point",
        "coordinates": [
          102.72739166673438,
          2.144803375344382
        ]
      }
    },
    {
      "type": "Feature",
      "properties": {
        "fid": "93",
        "id": "98",
        "Blok No": "A12",
        "Level Name": "ARAS 1",
        "Room No": null,
        "Name": "STUDENTS MINI MART"
      },
      "geometry": {
        "type": "Point",
        "coordinates": [
          102.7273969172339,
          2.144848004590446
        ]
      }
    },
    {
      "type": "Feature",
      "properties": {
        "fid": "94",
        "id": "95",
        "Blok No": "A12",
        "Level Name": "ARAS 1",
        "Room No": "B103",
        "Name": "RUMAH PELAJAR"
      },
      "geometry": {
        "type": "Point",
        "coordinates": [
          102.72737328998599,
          2.144955639830954
        ]
      }
    },
    {
      "type": "Feature",
      "properties": {
        "fid": "95",
        "id": "96",
        "Blok No": "A12",
        "Level Name": "ARAS 1",
        "Room No": "B104",
        "Name": "RUMAH PELAJAR"
      },
      "geometry": {
        "type": "Point",
        "coordinates": [
          102.72734309961366,
          2.14493595045769
        ]
      }
    },
    {
      "type": "Feature",
      "properties": {
        "fid": "96",
        "id": "97",
        "Blok No": "A12",
        "Level Name": "ARAS 1",
        "Room No": null,
        "Name": "DOBI"
      },
      "geometry": {
        "type": "Point",
        "coordinates": [
          102.72737591523577,
          2.144920198959079
        ]
      }
    },
    {
      "type": "Feature",
      "properties": {
        "fid": "97",
        "id": "99",
        "Blok No": "A12",
        "Level Name": "RAS 1",
        "Room No": null,
        "Name": "BILIK PEMBELAJARAN"
      },
      "geometry": {
        "type": "Point",
        "coordinates": [
          102.72715145638055,
          2.144681301230147
        ]
      }
    },
    {
      "type": "Feature",
      "properties": {
        "fid": "98",
        "id": "102",
        "Blok No": "A12",
        "Level Name": "ARAS 1",
        "Room No": null,
        "Name": "BILIK GERAKAN MKP"
      },
      "geometry": {
        "type": "Point",
        "coordinates": [
          102.72711732813357,
          2.144657673982231
        ]
      }
    },
    {
      "type": "Feature",
      "properties": {
        "fid": "99",
        "id": "100",
        "Blok No": "A12",
        "Level Name": "ARAS 1",
        "Room No": null,
        "Name": "PEJABAT KOLEJ KEDIAMAN"
      },
      "geometry": {
        "type": "Point",
        "coordinates": [
          102.72703463276586,
          2.14476268397297
        ]
      }
    },
    {
      "type": "Feature",
      "properties": {
        "fid": "100",
        "id": "101",
        "Blok No": "A12",
        "Level Name": "ARAS 1",
        "Room No": null,
        "Name": "BILIK MASAKAN"
      },
      "geometry": {
        "type": "Point",
        "coordinates": [
          102.72713570488195,
          2.144669487606189
        ]
      }
    },
    {
      "type": "Feature",
      "properties": {
        "fid": "101",
        "id": "103",
        "Blok No": "A13",
        "Level Name": "ARAS 1",
        "Room No": "B101",
        "Name": "RUMAH PELAJAR"
      },
      "geometry": {
        "type": "Point",
        "coordinates": [
          102.72709298418518,
          2.145436509185687
        ]
      }
    },
    {
      "type": "Feature",
      "properties": {
        "fid": "102",
        "id": "104",
        "Blok No": "A13",
        "Level Name": "ARAS 1",
        "Room No": "B102",
        "Name": "RUMAH PELAJAR"
      },
      "geometry": {
        "type": "Point",
        "coordinates": [
          102.72713811258936,
          2.145374833699968
        ]
      }
    },
    {
      "type": "Feature",
      "properties": {
        "fid": "103",
        "id": "105",
        "Blok No": "A13",
        "Level Name": "ARAS 1",
        "Room No": "B103",
        "Name": "RUMAH PELAJAR"
      },
      "geometry": {
        "type": "Point",
        "coordinates": [
          102.72703732582,
          2.145401910742478
        ]
      }
    },
    {
      "type": "Feature",
      "properties": {
        "fid": "104",
        "id": "106",
        "Blok No": "A13",
        "Level Name": "ARAS 1",
        "Room No": "B104",
        "Name": "RUMAH PELAJAR"
      },
      "geometry": {
        "type": "Point",
        "coordinates": [
          102.72707794138378,
          2.14533722669648
        ]
      }
    },
    {
      "type": "Feature",
      "properties": {
        "fid": "105",
        "id": "107",
        "Blok No": "A13",
        "Level Name": "ARAS 1",
        "Room No": null,
        "Name": "DOBI"
      },
      "geometry": {
        "type": "Point",
        "coordinates": [
          102.72707944566392,
          2.145398902182199
        ]
      }
    },
    {
      "type": "Feature",
      "properties": {
        "fid": "106",
        "id": "108",
        "Blok No": "A13",
        "Level Name": "ARAS 1",
        "Room No": "B105",
        "Name": "RUMAH PELAJAR"
      },
      "geometry": {
        "type": "Point",
        "coordinates": [
          102.72679513671756,
          2.145274046930621
        ]
      }
    },
    {
      "type": "Feature",
      "properties": {
        "fid": "107",
        "id": "109",
        "Blok No": "A13",
        "Level Name": "ARAS 1",
        "Room No": "B106",
        "Name": "RUMAH PELAJAR"
      },
      "geometry": {
        "type": "Point",
        "coordinates": [
          102.7268312394409,
          2.145201841483924
        ]
      }
    },
    {
      "type": "Feature",
      "properties": {
        "fid": "108",
        "id": "110",
        "Blok No": "A13",
        "Level Name": "ARAS 1",
        "Room No": "B107",
        "Name": "RUMAH PELAJAR"
      },
      "geometry": {
        "type": "Point",
        "coordinates": [
          102.72686132504369,
          2.145302628253271
        ]
      }
    },
    {
      "type": "Feature",
      "properties": {
        "fid": "109",
        "id": "111",
        "Blok No": "A13",
        "Level Name": "ARAS 1",
        "Room No": "B108",
        "Name": "RUMAH PELAJAR"
      },
      "geometry": {
        "type": "Point",
        "coordinates": [
          102.72689441920676,
          2.145240952767552
        ]
      }
    },
    {
      "type": "Feature",
      "properties": {
        "fid": "110",
        "id": "112",
        "Blok No": "A14",
        "Level Name": "ARAS 1",
        "Room No": "B101",
        "Name": "RUMAH PELAJAR"
      },
      "geometry": {
        "type": "Point",
        "coordinates": [
          102.72647923788826,
          2.145092029033741
        ]
      }
    },
    {
      "type": "Feature",
      "properties": {
        "fid": "111",
        "id": "113",
        "Blok No": "A14",
        "Level Name": "ARAS 1",
        "Room No": "B102",
        "Name": "RUMAH PELAJAR"
      },
      "geometry": {
        "type": "Point",
        "coordinates": [
          102.72652436629244,
          2.145018319306905
        ]
      }
    },
    {
      "type": "Feature",
      "properties": {
        "fid": "112",
        "id": "114",
        "Blok No": "A14",
        "Level Name": "ARAS 1",
        "Room No": "B103",
        "Name": "RUMAH PELAJAR"
      },
      "geometry": {
        "type": "Point",
        "coordinates": [
          102.72642057096282,
          2.145043892069277
        ]
      }
    },
    {
      "type": "Feature",
      "properties": {
        "fid": "113",
        "id": "115",
        "Blok No": "A14",
        "Level Name": "ARAS 1",
        "Room No": "B104",
        "Name": "RUMAH PELAJAR"
      },
      "geometry": {
        "type": "Point",
        "coordinates": [
          102.72646720364713,
          2.144976199462999
        ]
      }
    },
    {
      "type": "Feature",
      "properties": {
        "fid": "114",
        "id": "116",
        "Blok No": "A14",
        "Level Name": "ARAS 1",
        "Room No": null,
        "Name": "DOBI"
      },
      "geometry": {
        "type": "Point",
        "coordinates": [
          102.72646870792728,
          2.145045396349416
        ]
      }
    },
    {
      "type": "Feature",
      "properties": {
        "fid": "115",
        "id": "117",
        "Blok No": "A14",
        "Level Name": "ARAS 1",
        "Room No": "B105",
        "Name": "RUMAH PELAJAR"
      },
      "geometry": {
        "type": "Point",
        "coordinates": [
          102.72616333905896,
          2.14491452397728
        ]
      }
    },
    {
      "type": "Feature",
      "properties": {
        "fid": "116",
        "id": "118",
        "Blok No": "A14",
        "Level Name": "ARAS 1",
        "Room No": "B106",
        "Name": "RUMAH PELAJAR"
      },
      "geometry": {
        "type": "Point",
        "coordinates": [
          102.72620846746314,
          2.144840814250444
        ]
      }
    },
    {
      "type": "Feature",
      "properties": {
        "fid": "117",
        "id": "119",
        "Blok No": "A14",
        "Level Name": "ARAS 1",
        "Room No": "B107",
        "Name": "RUMAH PELAJAR"
      },
      "geometry": {
        "type": "Point",
        "coordinates": [
          102.72623704878579,
          2.14494460958007
        ]
      }
    },
    {
      "type": "Feature",
      "properties": {
        "fid": "118",
        "id": "120",
        "Blok No": "A14",
        "Level Name": "ARAS 1",
        "Room No": "B108",
        "Name": "RUMAH PELAJAR"
      },
      "geometry": {
        "type": "Point",
        "coordinates": [
          102.72627766434955,
          2.14488293409435
        ]
      }
    },
    {
      "type": "Feature",
      "properties": {
        "fid": "119",
        "id": "121",
        "Blok No": "A15",
        "Level Name": "ARAS 1",
        "Room No": "B101",
        "Name": "RUMAH PELAJAR"
      },
      "geometry": {
        "type": "Point",
        "coordinates": [
          102.72632580131399,
          2.144515889740311
        ]
      }
    },
    {
      "type": "Feature",
      "properties": {
        "fid": "120",
        "id": "122",
        "Blok No": "A15",
        "Level Name": "ARAS 1",
        "Room No": "B102",
        "Name": "RUMAH PELAJAR"
      },
      "geometry": {
        "type": "Point",
        "coordinates": [
          102.72637393827846,
          2.144442180013475
        ]
      }
    },
    {
      "type": "Feature",
      "properties": {
        "fid": "121",
        "id": "124",
        "Blok No": "A15",
        "Level Name": "ARAS 1",
        "Room No": "B103",
        "Name": "RUMAH PELAJAR"
      },
      "geometry": {
        "type": "Point",
        "coordinates": [
          102.72639800676069,
          2.14454898390338
        ]
      }
    },
    {
      "type": "Feature",
      "properties": {
        "fid": "122",
        "id": "125",
        "Blok No": "A15",
        "Level Name": "ARAS 1",
        "Room No": "B104",
        "Name": "RUMAH PELAJAR"
      },
      "geometry": {
        "type": "Point",
        "coordinates": [
          102.72644764800529,
          2.144476778456684
        ]
      }
    },
    {
      "type": "Feature",
      "properties": {
        "fid": "123",
        "id": "123",
        "Blok No": "A15",
        "Level Name": "ARAS 1",
        "Room No": null,
        "Name": "DOBI"
      },
      "geometry": {
        "type": "Point",
        "coordinates": [
          102.72637393827846,
          2.144515889740311
        ]
      }
    },
    {
      "type": "Feature",
      "properties": {
        "fid": "124",
        "id": "126",
        "Blok No": "A15",
        "Level Name": "ARAS 1",
        "Room No": "B105",
        "Name": "RUMAH PELAJAR"
      },
      "geometry": {
        "type": "Point",
        "coordinates": [
          102.72656046901575,
          2.144624197910356
        ]
      }
    },
    {
      "type": "Feature",
      "properties": {
        "fid": "125",
        "id": "127",
        "Blok No": "A15",
        "Level Name": "ARAS 1",
        "Room No": "B106",
        "Name": "RUMAH PELAJAR"
      },
      "geometry": {
        "type": "Point",
        "coordinates": [
          102.72660860598022,
          2.144561018144497
        ]
      }
    },
    {
      "type": "Feature",
      "properties": {
        "fid": "126",
        "id": "128",
        "Blok No": "A15",
        "Level Name": "ARAS 1",
        "Room No": "B107",
        "Name": "RUMAH PELAJAR"
      },
      "geometry": {
        "type": "Point",
        "coordinates": [
          102.72663267446245,
          2.144663309193982
        ]
      }
    },
    {
      "type": "Feature",
      "properties": {
        "fid": "127",
        "id": "129",
        "Blok No": "A15",
        "Level Name": "ARAS 1",
        "Room No": "B108",
        "Name": "RUMAH PELAJAR"
      },
      "geometry": {
        "type": "Point",
        "coordinates": [
          102.72667028146594,
          2.144592608027426
        ]
      }
    },
    {
      "type": "Feature",
      "properties": {
        "fid": "128",
        "id": "130",
        "Blok No": "A16",
        "Level Name": "ARAS 1",
        "Room No": "B101",
        "Name": "RUMAH PELAJAR"
      },
      "geometry": {
        "type": "Point",
        "coordinates": [
          102.72677106823532,
          2.144395547329151
        ]
      }
    },
    {
      "type": "Feature",
      "properties": {
        "fid": "129",
        "id": "131",
        "Blok No": "A16",
        "Level Name": "ARAS 1",
        "Room No": "B102",
        "Name": "RUMAH PELAJAR"
      },
      "geometry": {
        "type": "Point",
        "coordinates": [
          102.72682522232034,
          2.144317324761897
        ]
      }
    },
    {
      "type": "Feature",
      "properties": {
        "fid": "130",
        "id": "133",
        "Blok No": "A16",
        "Level Name": "ARAS 1",
        "Room No": "B103",
        "Name": "RUMAH PELAJAR"
      },
      "geometry": {
        "type": "Point",
        "coordinates": [
          102.72671390559002,
          2.144351923205105
        ]
      }
    },
    {
      "type": "Feature",
      "properties": {
        "fid": "131",
        "id": "134",
        "Blok No": "A16",
        "Level Name": "ARAS 1",
        "Room No": "B104",
        "Name": "RUMAH PELAJAR"
      },
      "geometry": {
        "type": "Point",
        "coordinates": [
          102.72676354683462,
          2.144284230598827
        ]
      }
    },
    {
      "type": "Feature",
      "properties": {
        "fid": "132",
        "id": "132",
        "Blok No": "A16",
        "Level Name": "ARAS 1",
        "Room No": null,
        "Name": "DOBI"
      },
      "geometry": {
        "type": "Point",
        "coordinates": [
          102.72675903399421,
          2.144354931765384
        ]
      }
    },
    {
      "type": "Feature",
      "properties": {
        "fid": "133",
        "id": "135",
        "Blok No": "A16",
        "Level Name": "ARAS 1",
        "Room No": "B105",
        "Name": "RUMAH PELAJAR"
      },
      "geometry": {
        "type": "Point",
        "coordinates": [
          102.72648074216839,
          2.144218042272689
        ]
      }
    },
    {
      "type": "Feature",
      "properties": {
        "fid": "134",
        "id": "136",
        "Blok No": "A16",
        "Level Name": "ARAS 1",
        "Room No": "B106",
        "Name": "RUMAH PELAJAR"
      },
      "geometry": {
        "type": "Point",
        "coordinates": [
          102.72653489625343,
          2.144145836825993
        ]
      }
    },
    {
      "type": "Feature",
      "properties": {
        "fid": "135",
        "id": "137",
        "Blok No": "A16",
        "Level Name": "ARAS 1",
        "Room No": "B107",
        "Name": "RUMAH PELAJAR"
      },
      "geometry": {
        "type": "Point",
        "coordinates": [
          102.7265604690158,
          2.144252640715898
        ]
      }
    },
    {
      "type": "Feature",
      "properties": {
        "fid": "136",
        "id": "138",
        "Blok No": "A16",
        "Level Name": "ARAS 1",
        "Room No": "B108",
        "Name": "RUMAH PELAJAR"
      },
      "geometry": {
        "type": "Point",
        "coordinates": [
          102.72660710170011,
          2.144183443829481
        ]
      }
    },
    {
      "type": "Feature",
      "properties": {
        "fid": "137",
        "id": "139",
        "Blok No": "A17",
        "Level Name": "ARAS 1",
        "Room No": "B101",
        "Name": "RUMAH PELAJAR"
      },
      "geometry": {
        "type": "Point",
        "coordinates": [
          102.72693653905067,
          2.144070622819018
        ]
      }
    },
    {
      "type": "Feature",
      "properties": {
        "fid": "138",
        "id": "140",
        "Blok No": "A17",
        "Level Name": "ARAS 1",
        "Room No": "B102",
        "Name": "RUMAH PELAJAR"
      },
      "geometry": {
        "type": "Point",
        "coordinates": [
          102.72699219741583,
          2.14400293021274
        ]
      }
    },
    {
      "type": "Feature",
      "properties": {
        "fid": "139",
        "id": "142",
        "Blok No": "A17",
        "Level Name": "ARAS 1",
        "Room No": "B103",
        "Name": "RUMAH PELAJAR"
      },
      "geometry": {
        "type": "Point",
        "coordinates": [
          102.72686884644439,
          2.144028502975112
        ]
      }
    },
    {
      "type": "Feature",
      "properties": {
        "fid": "140",
        "id": "143",
        "Blok No": "A17",
        "Level Name": "ARAS 1",
        "Room No": "B104",
        "Name": "RUMAH PELAJAR"
      },
      "geometry": {
        "type": "Point",
        "coordinates": [
          102.72691247056844,
          2.143957801808555
        ]
      }
    },
    {
      "type": "Feature",
      "properties": {
        "fid": "141",
        "id": "141",
        "Blok No": "A17",
        "Level Name": "ARAS 1",
        "Room No": null,
        "Name": "DOBI"
      },
      "geometry": {
        "type": "Point",
        "coordinates": [
          102.72691698340886,
          2.144026998694972
        ]
      }
    },
    {
      "type": "Feature",
      "properties": {
        "fid": "142",
        "id": "144",
        "Blok No": "A17",
        "Level Name": "ARAS 1",
        "Room No": "B105",
        "Name": "RUMAH PELAJAR"
      },
      "geometry": {
        "type": "Point",
        "coordinates": [
          102.72664621298374,
          2.143906656283812
        ]
      }
    },
    {
      "type": "Feature",
      "properties": {
        "fid": "143",
        "id": "145",
        "Blok No": "A17",
        "Level Name": "ARAS 1",
        "Room No": "B106",
        "Name": "RUMAH PELAJAR"
      },
      "geometry": {
        "type": "Point",
        "coordinates": [
          102.72669735850849,
          2.14382392087614
        ]
      }
    },
    {
      "type": "Feature",
      "properties": {
        "fid": "144",
        "id": "146",
        "Blok No": "A17",
        "Level Name": "ARAS 1",
        "Room No": "B107",
        "Name": "RUMAH PELAJAR"
      },
      "geometry": {
        "type": "Point",
        "coordinates": [
          102.72671540987015,
          2.143935237606463
        ]
      }
    },
    {
      "type": "Feature",
      "properties": {
        "fid": "145",
        "id": "147",
        "Blok No": "A17",
        "Level Name": "ARAS 1",
        "Room No": "B108",
        "Name": "RUMAH PELAJAR"
      },
      "geometry": {
        "type": "Point",
        "coordinates": [
          102.72676354683462,
          2.143860023599487
        ]
      }
    },
    {
      "type": "Feature",
      "properties": {
        "fid": "146",
        "id": "148",
        "Blok No": "A18",
        "Level Name": "ARAS 1",
        "Room No": "B101",
        "Name": "STOR 1"
      },
      "geometry": {
        "type": "Point",
        "coordinates": [
          102.72723589079841,
          2.143775783911675
        ]
      }
    },
    {
      "type": "Feature",
      "properties": {
        "fid": "147",
        "id": "149",
        "Blok No": "A18",
        "Level Name": "ARAS 1",
        "Room No": "B102",
        "Name": "STOR"
      },
      "geometry": {
        "type": "Point",
        "coordinates": [
          102.72728252348274,
          2.1437005699047
        ]
      }
    },
    {
      "type": "Feature",
      "properties": {
        "fid": "148",
        "id": "151",
        "Blok No": "A18",
        "Level Name": "ARAS 1",
        "Room No": "B103",
        "Name": "STOR"
      },
      "geometry": {
        "type": "Point",
        "coordinates": [
          102.72714563399005,
          2.143721629826653
        ]
      }
    },
    {
      "type": "Feature",
      "properties": {
        "fid": "149",
        "id": "152",
        "Blok No": "A17",
        "Level Name": "ARAS 1",
        "Room No": "B104",
        "Name": "STOR"
      },
      "geometry": {
        "type": "Point",
        "coordinates": [
          102.72718624955381,
          2.143661458621073
        ]
      }
    },
    {
      "type": "Feature",
      "properties": {
        "fid": "150",
        "id": "150",
        "Blok No": "A17",
        "Level Name": "ARAS 1",
        "Room No": null,
        "Name": "DOBI"
      },
      "geometry": {
        "type": "Point",
        "coordinates": [
          102.72720730947577,
          2.143733664067769
        ]
      }
    },
    {
      "type": "Feature",
      "properties": {
        "fid": "151",
        "id": "153",
        "Blok No": "A18",
        "Level Name": "ARAS 1",
        "Room No": "B105",
        "Name": "STOR"
      },
      "geometry": {
        "type": "Point",
        "coordinates": [
          102.72691698340884,
          2.143601287415493
        ]
      }
    },
    {
      "type": "Feature",
      "properties": {
        "fid": "152",
        "id": "154",
        "Blok No": "A18",
        "Level Name": "ARAS 1",
        "Room No": "B106",
        "Name": "STOR"
      },
      "geometry": {
        "type": "Point",
        "coordinates": [
          102.72695910325275,
          2.143526073408518
        ]
      }
    },
    {
      "type": "Feature",
      "properties": {
        "fid": "153",
        "id": "155",
        "Blok No": "A18",
        "Level Name": "ARAS 1",
        "Room No": "B107",
        "Name": "STOR"
      },
      "geometry": {
        "type": "Point",
        "coordinates": [
          102.72698467601512,
          2.143634381578562
        ]
      }
    },
    {
      "type": "Feature",
      "properties": {
        "fid": "154",
        "id": "156",
        "Blok No": "A18",
        "Level Name": "ARAS 1",
        "Room No": "B108",
        "Name": "STOR"
      },
      "geometry": {
        "type": "Point",
        "coordinates": [
          102.72702679585903,
          2.143563680412006
        ]
      }
    }
  ]
}