{
  "type": "FeatureCollection",
  "name": "CollegeFootprint_4",
  "crs": {
    "type": "name",
    "properties": {
      "name": "urn:ogc:def:crs:OGC:1.3:CRS84"
    }
  },
  "features": [
    {
      "type": "Feature",
      "properties": {
        "id": "7",
        "BLOCK NO": "A7 KAFETERIA"
      },
      "geometry": {
        "type": "MultiPolygon",
        "coordinates": [
          [
            [
              [
                102.729124621798,
                2.145579953461119
              ],
              [
                102.72884886078957,
                2.1448255129664
              ],
              [
                102.72846383598538,
                2.144976401065344
              ],
              [
                102.72877601825905,
                2.145710029408484
              ],
              [
                102.729124621798,
                2.145579953461119
              ]
            ]
          ]
        ]
      }
    },
    {
      "type": "Feature",
      "properties": {
        "id": "6",
        "BLOCK NO": "A6"
      },
      "geometry": {
        "type": "MultiPolygon",
        "coordinates": [
          [
            [
              [
                102.72841405309562,
                2.144626506446685
              ],
              [
                102.72849558742233,
                2.144830342263463
              ],
              [
                102.72891956592123,
                2.144679503759047
              ],
              [
                102.72881764801284,
                2.144479744658605
              ],
              [
                102.72841405309562,
                2.144626506446685
              ]
            ]
          ]
        ]
      }
    },
    {
      "type": "Feature",
      "properties": {
        "id": "9",
        "BLOCK NO": "A9 DEWAN"
      },
      "geometry": {
        "type": "MultiPolygon",
        "coordinates": [
          [
            [
              [
                102.72806417535705,
                2.145324185678003
              ],
              [
                102.7282047387177,
                2.145565151439101
              ],
              [
                102.72857421955138,
                2.145404507598369
              ],
              [
                102.72848184934296,
                2.145167557933289
              ],
              [
                102.72806417535705,
                2.145324185678003
              ]
            ]
          ]
        ]
      }
    },
    {
      "type": "Feature",
      "properties": {
        "id": "5",
        "BLOCK NO": "A5"
      },
      "geometry": {
        "type": "MultiPolygon",
        "coordinates": [
          [
            [
              [
                102.72787858279474,
                2.144852858438231
              ],
              [
                102.72796671167977,
                2.145036616538919
              ],
              [
                102.72839985577426,
                2.144858483686212
              ],
              [
                102.72832297738519,
                2.144687851164145
              ],
              [
                102.72787858279474,
                2.144852858438231
              ]
            ]
          ]
        ]
      }
    },
    {
      "type": "Feature",
      "properties": {
        "id": "2",
        "BLOCK NO": "A2"
      },
      "geometry": {
        "type": "MultiPolygon",
        "coordinates": [
          [
            [
              [
                102.72893496872943,
                2.146171357705268
              ],
              [
                102.72886442076357,
                2.145994987790623
              ],
              [
                102.72844298949384,
                2.146158362027347
              ],
              [
                102.72852838966304,
                2.146344014569078
              ],
              [
                102.72893496872943,
                2.146171357705268
              ]
            ]
          ]
        ]
      }
    },
    {
      "type": "Feature",
      "properties": {
        "id": "1",
        "BLOCK NO": "A1"
      },
      "geometry": {
        "type": "MultiPolygon",
        "coordinates": [
          [
            [
              [
                102.72897581228861,
                2.145954144231442
              ],
              [
                102.72904264720363,
                2.146136083722339
              ],
              [
                102.72947707415128,
                2.145970852960198
              ],
              [
                102.72940095660917,
                2.145788913469302
              ],
              [
                102.72897581228861,
                2.145954144231442
              ]
            ]
          ]
        ]
      }
    },
    {
      "type": "Feature",
      "properties": {
        "id": "8",
        "BLOCK NO": "A8 SURAU"
      },
      "geometry": {
        "type": "MultiPolygon",
        "coordinates": [
          [
            [
              [
                102.72837986762966,
                2.145883596265584
              ],
              [
                102.72862492898474,
                2.145775917791381
              ],
              [
                102.72851539398512,
                2.145545708639634
              ],
              [
                102.72826476305377,
                2.145655243639256
              ],
              [
                102.72837986762966,
                2.145883596265584
              ]
            ]
          ]
        ]
      }
    },
    {
      "type": "Feature",
      "properties": {
        "id": "3",
        "BLOCK NO": "A3 FELO"
      },
      "geometry": {
        "type": "MultiPolygon",
        "coordinates": [
          [
            [
              [
                102.72798079672971,
                2.146043100970912
              ],
              [
                102.7279099943316,
                2.145803622271409
              ],
              [
                102.72761220777483,
                2.145876507092997
              ],
              [
                102.72766426836168,
                2.146082667016916
              ],
              [
                102.72798079672971,
                2.146043100970912
              ]
            ]
          ]
        ]
      }
    },
    {
      "type": "Feature",
      "properties": {
        "id": "4",
        "BLOCK NO": "A4 FELO"
      },
      "geometry": {
        "type": "MultiPolygon",
        "coordinates": [
          [
            [
              [
                102.72744977874386,
                2.145572473265802
              ],
              [
                102.72755598234103,
                2.145753644108034
              ],
              [
                102.72783919193348,
                2.145620369005703
              ],
              [
                102.72771632894853,
                2.145410044234835
              ],
              [
                102.72744977874386,
                2.145572473265802
              ]
            ]
          ]
        ]
      }
    },
    {
      "type": "Feature",
      "properties": {
        "id": "14",
        "BLOCK NO": "A14"
      },
      "geometry": {
        "type": "MultiPolygon",
        "coordinates": [
          [
            [
              [
                102.72651504132965,
                2.14516349083303
              ],
              [
                102.72660432021073,
                2.144984933070868
              ],
              [
                102.72619299965146,
                2.144755358805231
              ],
              [
                102.72608458958157,
                2.144927539504458
              ],
              [
                102.72651504132965,
                2.14516349083303
              ]
            ]
          ]
        ]
      }
    },
    {
      "type": "Feature",
      "properties": {
        "id": "13",
        "BLOCK NO": "A13"
      },
      "geometry": {
        "type": "MultiPolygon",
        "coordinates": [
          [
            [
              [
                102.72681795181903,
                2.145115662861022
              ],
              [
                102.72672548440647,
                2.14528784356025
              ],
              [
                102.72711767377695,
                2.14551422929442
              ],
              [
                102.72721014118949,
                2.145345237126659
              ],
              [
                102.72681795181903,
                2.145115662861022
              ]
            ]
          ]
        ]
      }
    },
    {
      "type": "Feature",
      "properties": {
        "id": "15",
        "BLOCK NO": "A15"
      },
      "geometry": {
        "type": "MultiPolygon",
        "coordinates": [
          [
            [
              [
                102.72636518035068,
                2.144356792371833
              ],
              [
                102.72626633587521,
                2.144535350133995
              ],
              [
                102.72666171377713,
                2.144752170273764
              ],
              [
                102.72675736972116,
                2.144576801043069
              ],
              [
                102.72636518035068,
                2.144356792371833
              ]
            ]
          ]
        ]
      }
    },
    {
      "type": "Feature",
      "properties": {
        "id": "16",
        "BLOCK NO": "A16"
      },
      "geometry": {
        "type": "MultiPolygon",
        "coordinates": [
          [
            [
              [
                102.72651822986111,
                2.144060258945385
              ],
              [
                102.7264130083227,
                2.144238816707547
              ],
              [
                102.72679882063022,
                2.144471579504651
              ],
              [
                102.72690085363718,
                2.144277079085153
              ],
              [
                102.72651822986111,
                2.144060258945385
              ]
            ]
          ]
        ]
      }
    },
    {
      "type": "Feature",
      "properties": {
        "id": "12",
        "BLOCK NO": "A12"
      },
      "geometry": {
        "type": "MultiPolygon",
        "coordinates": [
          [
            [
              [
                102.72708578846228,
                2.14460868635774
              ],
              [
                102.72698694398679,
                2.14479043265137
              ],
              [
                102.72738551042019,
                2.145004064259671
              ],
              [
                102.7274907319586,
                2.144822317966042
              ],
              [
                102.72708578846228,
                2.14460868635774
              ]
            ]
          ]
        ]
      }
    },
    {
      "type": "Feature",
      "properties": {
        "id": "11",
        "BLOCK NO": "A11"
      },
      "geometry": {
        "type": "MultiPolygon",
        "coordinates": [
          [
            [
              [
                102.7272675347559,
                2.144280267616621
              ],
              [
                102.72715912468601,
                2.14446201391025
              ],
              [
                102.72755450258795,
                2.144682022581486
              ],
              [
                102.72765653559489,
                2.144503464819323
              ],
              [
                102.7272675347559,
                2.144280267616621
              ]
            ]
          ]
        ]
      }
    },
    {
      "type": "Feature",
      "properties": {
        "id": "10",
        "BLOCK NO": "A10"
      },
      "geometry": {
        "type": "MultiPolygon",
        "coordinates": [
          [
            [
              [
                102.72748435489567,
                2.143738217267199
              ],
              [
                102.72738232188871,
                2.143942283281099
              ],
              [
                102.7277808883221,
                2.144149537826466
              ],
              [
                102.72787973279759,
                2.143967791532837
              ],
              [
                102.72748435489567,
                2.143738217267199
              ]
            ]
          ]
        ]
      }
    },
    {
      "type": "Feature",
      "properties": {
        "id": "18",
        "BLOCK NO": "A18"
      },
      "geometry": {
        "type": "MultiPolygon",
        "coordinates": [
          [
            [
              [
                102.7268594027281,
                2.143626618665848
              ],
              [
                102.72725478063002,
                2.143843438805616
              ],
              [
                102.72735043657404,
                2.143674446637856
              ],
              [
                102.72694549307771,
                2.143438495309284
              ],
              [
                102.7268594027281,
                2.143626618665848
              ]
            ]
          ]
        ]
      }
    },
    {
      "type": "Feature",
      "properties": {
        "id": "17",
        "BLOCK NO": "A17"
      },
      "geometry": {
        "type": "MultiPolygon",
        "coordinates": [
          [
            [
              [
                102.72657881195899,
                2.143926340623763
              ],
              [
                102.72696143573505,
                2.144139972232064
              ],
              [
                102.72705390314759,
                2.143974168595771
              ],
              [
                102.72667127937153,
                2.143744594330134
              ],
              [
                102.72657881195899,
                2.143926340623763
              ]
            ]
          ]
        ]
      }
    }
  ]
}